OBJECT_NAME,OBJECT_ID,EPOCH,MEAN_MOTION,ECCENTRICITY,INCLINATION,RA_OF_ASC_NODE,ARG_OF_PERICENTER,MEAN_ANOMALY,EPHEMERIS_TYPE,CLASSIFICATION_TYPE,NORAD_CAT_ID,ELEMENT_SET_NO,REV_AT_EPOCH,BSTAR,MEAN_MOTION_DOT,MEAN_MOTION_DDOT
CUTE-1 (CO-55),2003-031E,2026-05-20T06:56:12.520320,14.24316564,.0008286,98.6744,149.1989,266.0889,93.9343,0,U,27844,999,18770,.95378E-4,.176E-5,0
CUBESAT XI-IV (CO-57),2003-031J,2026-05-20T11:23:06.199584,14.23604190,.00082365,98.6775,149.1168,286.8725,73.1550,0,U,27848,999,18743,.78169227E-4,.134E-5,0
CUBESAT XI-V,2005-043F,2026-05-20T09:47:25.699776,14.72547895,.00128366,98.2955,295.4528,295.7094,64.2787,0,U,28895,999,9766,.133382E-3,.795E-5,0
CUTE-1.7+APD II (CO-65),2008-021C,2026-05-20T14:28:09.683040,15.09156742,.00106753,97.8273,121.4572,117.3484,242.8832,0,U,32785,999,98103,.1923035E-3,.2989E-4,0
CANX-2,2008-021H,2026-05-20T04:10:17.376672,15.05385874,.00115506,97.8620,119.4156,132.9163,227.3034,0,U,32790,999,98059,.15006648E-3,.2089E-4,0
SEEDS II (CO-66),2008-021J,2026-05-20T10:41:53.831616,15.31697844,.00046836,97.7526,137.0429,69.5978,290.5765,0,U,32791,999,98304,.42104306E-3,.12815E-3,0
SWISSCUBE,2009-051B,2026-05-20T11:01:02.873856,14.62420652,.00057209,98.4053,47.8632,308.0875,51.9810,0,U,35932,999,88510,.13348179E-3,.626E-5,0
BEESAT-1,2009-051C,2026-05-20T10:53:59.071488,14.61668848,.00045104,98.3982,47.5514,327.5835,32.5088,0,U,35933,999,88513,.11465798E-3,.522E-5,0
ITUPSAT1,2009-051E,2026-05-20T05:09:58.605696,14.60392885,.0006931,98.4067,46.5303,335.9676,24.1199,0,U,35935,999,88465,.11097E-3,.488E-5,0
TISAT 1,2010-035E,2026-05-20T12:55:07.729824,15.30538753,.00028053,98.0706,84.6627,39.3668,320.7774,0,U,36799,999,86347,.47855205E-3,.14056E-3,0
AEROCUBE 4.5A,2012-048K,2026-05-20T08:50:10.565376,15.79758875,.00182643,64.6286,127.3853,215.7880,144.2052,0,U,38767,999,36824,.74724568E-3,.141666E-2,0
STRAND-1,2013-009E,2026-05-20T08:18:47.337408,14.37144794,.00077719,98.3916,321.2673,320.9184,39.1441,0,U,39090,999,69306,.65915129E-4,.153E-5,0
BRITE-AUSTRIA,2013-009F,2026-05-20T10:00:24.029856,14.36529751,.00094751,98.3988,320.5412,329.2992,30.7639,0,U,39091,999,69306,.48685103E-4,.1E-5,0
NEE-01 PEGASO,2013-018B,2026-05-20T07:53:49.185600,14.93503212,.00113766,98.1188,283.5678,253.7412,106.2555,0,U,39151,999,70654,.15394882E-3,.156E-4,0
POPACS 2,2013-055E,2026-05-20T12:35:21.494112,14.90555413,.04184366,80.9910,175.8448,282.7737,72.7034,0,U,39269,999,65909,.16915038E-3,.984E-4,0
POPACS 3,2013-055F,2026-05-20T15:02:35.753280,14.55428196,.05546666,81.0017,259.0501,153.8075,209.2354,0,U,39270,999,63454,.28868749E-3,.12161E-3,0
ZACUBE-1 (TSHEPISOSAT),2013-066B,2026-05-20T08:14:32.288064,15.00951329,.0040864,97.8122,102.5296,346.3630,13.6486,0,U,39417,999,67655,.23169281E-3,.2941E-4,0
WNISAT-1,2013-066H,2026-05-20T10:01:10.195104,14.58022953,.01621754,97.7169,291.5501,319.7579,39.1706,0,U,39423,999,66268,.63193171E-4,.296E-5,0
TRITON-1,2013-066M,2026-05-20T16:11:05.542080,14.81573833,.00894151,97.8266,51.1080,325.0278,34.5082,0,U,39427,999,67001,.16214029E-3,.1306E-4,0
GOMX-1,2013-066Q,2026-05-20T14:33:44.399232,14.69336698,.01290552,97.6494,342.8091,165.4279,195.0706,0,U,39430,999,66586,.20083874E-3,.1297E-4,0
CUBEBUG-2 (LO-74),2013-066AA,2026-05-20T14:19:05.007936,14.93520077,.0059385,97.8896,89.4669,118.1105,242.6134,0,U,39440,999,67287,.23645483E-3,.2516E-4,0
NEE-02 KRYSAOR,2013-066AB,2026-05-20T08:13:06.723552,14.86498349,.00666819,97.8886,79.7609,159.7585,200.6298,0,U,39441,999,67206,.1205875E-3,.1052E-4,0
FUNCUBE-1 (AO-73),2013-066AE,2026-05-19T21:07:13.054944,15.09086227,.00348521,97.8266,110.7464,301.7800,58.0035,0,U,39444,999,67539,.33982096E-3,.5392E-4,0
UWE-3,2013-066AG,2026-05-19T20:57:05.279328,14.96754231,.00504162,97.8681,95.7656,55.1859,305.4090,0,U,39446,999,67334,.25518464E-3,.2931E-4,0
BRITE-CA1 (TORONTO),2014-033L,2026-05-20T07:35:18.042720,14.72634211,.00787246,97.9701,269.7647,7.1930,353.0388,0,U,40020,999,63811,.68904928E-4,.407E-5,0
DUCHIFAT-1,2014-033M,2026-05-20T09:46:03.275904,15.59181343,.00062329,98.0489,195.7904,167.3565,192.7847,0,U,40021,999,65141,.7667959E-3,.60331E-3,0
NANOSATC-BR1,2014-033Q,2026-05-20T11:50:01.385376,15.30482216,.00016614,98.0738,170.4463,274.4950,85.6099,0,U,40024,999,64974,.42435705E-3,.12429E-3,0
QB50P1,2014-033R,2026-05-20T11:09:53.551296,15.17779881,.00076084,98.0975,149.6777,331.3081,28.7731,0,U,40025,999,64882,.26763973E-3,.5334E-4,0
QB50P2,2014-033Y,2026-05-20T10:12:26.525664,15.14759681,.00056536,98.0754,135.5876,269.9397,90.1185,0,U,40032,999,64846,.23169194E-3,.4223E-4,0
PERSEUS-M2,2014-033AD,2026-05-20T15:07:14.892672,14.95417427,.00131549,97.9968,90.6151,37.2578,322.9552,0,U,40037,999,64666,.8485213E-4,.878E-5,0
